[{"OBJECT_ID":"2008-044A","OBJECT_NAME":"NIMIQ 4","NORAD_CAT_ID":"33373","OBJECT_TYPE":"PAYLOAD","PERIOD":"1436.079","INCLINATION":"0.0146","APOGEE":"35795.427","PERIGEE":"35777.094","ECCENTRICITY":"0.0002174","MEAN_MOTION":"1.00272985","TLE_LINE1":"1 33373U 08044A   16238.37427516 -.00000247  00000-0  00000+0 0  9993","TLE_LINE2":"2 33373   0.0146 108.4858 0002174  36.4072 241.8962  1.00272985 28918","LAUNCH_DATE":"2008-09-19","LAUNCH_SITE":"TYURATAM MISSILE AND SPACE COMPLEX","OWNER":"CANADA","ORBIT_TYPE":"Geosynchronous","OPERATIONAL_STATUS":"Operational","satInfo":{"lng":-98.27105486064318,"lat":0.8087885777191791,"elevation":-7.78104333490672,"azimuth":53.27105486064315,"range":42562.246511113015,"height":35796.423226109466,"velocity":3.07436770876643},"x":-354,"y":51,"dx":-4,"dy":30},{"OBJECT_ID":"2008-045A","OBJECT_NAME":"GALAXY 19","NORAD_CAT_ID":"33376","OBJECT_TYPE":"PAYLOAD","PERIOD":"1436.125","INCLINATION":"0.0104","APOGEE":"35800.025","PERIGEE":"35774.296","ECCENTRICITY":"0.0003051","MEAN_MOTION":"1.00269774","TLE_LINE1":"1 33376U 08045A   16239.33887309 -.00000167  00000-0  00000+0 0  9995","TLE_LINE2":"2 33376   0.0104 119.2567 0003051  51.4266 189.3150  1.00269774 28927","LAUNCH_DATE":"2008-09-24","LAUNCH_SITE":"SEA LAUNCH","OWNER":"UNITED STATES OF AMERICA","ORBIT_TYPE":"Geosynchronous","OPERATIONAL_STATUS":"Operational","satInfo":{"lng":-105.54058129448067,"lat":1.3265265207123516,"elevation":-7.2768586159108635,"azimuth":60.540581294480596,"range":42491.122380110806,"height":35782.0359290965,"velocity":3.0751607794908744},"x":-345,"y":96,"dx":-8,"dy":30},{"OBJECT_ID":"2008-045B","OBJECT_NAME":"BLOCK DM-SL R/B","NORAD_CAT_ID":"33377","OBJECT_TYPE":"ROCKET BODY","PERIOD":"676.519","INCLINATION":"0.6647","APOGEE":"35528.020","PERIGEE":"2771.337","ECCENTRICITY":"0.6415881","MEAN_MOTION":"2.12854249","TLE_LINE1":"1 33377U 08045B   16239.33777869 -.00000103  00000-0  00000+0 0  9995","TLE_LINE2":"2 33377   0.6647 259.3018 6415881 128.6802 357.3170  2.12854249 61602","LAUNCH_DATE":"2008-09-24","LAUNCH_SITE":"SEA LAUNCH","OWNER":"SEA LAUNCH DEMO","ORBIT_TYPE":"Highly Elliptical Orbit","OPERATIONAL_STATUS":"N/A, derelict rocket body","satInfo":{"lng":167.544816088175,"lat":0.35897124288507387,"elevation":-13.66652015863967,"azimuth":147.455183911825,"range":26231.365956320857,"height":19111.048808499847,"velocity":3.9573973556185016},"x":41,"y":187,"dx":-39,"dy":-9},{"OBJECT_ID":"2008-055A","OBJECT_NAME":"VENESAT-1","NORAD_CAT_ID":"33414","OBJECT_TYPE":"PAYLOAD","PERIOD":"1436.104","INCLINATION":"0.0532","APOGEE":"35794.162","PERIGEE":"35779.337","ECCENTRICITY":"0.0001758","MEAN_MOTION":"1.0027124","TLE_LINE1":"1 33414U 08055A   16238.67057015 -.00000265  00000-0  00000+0 0  9997","TLE_LINE2":"2 33414   0.0532 279.7655 0001758 235.8489 342.1244  1.00271240 28634","LAUNCH_DATE":"2008-10-29","LAUNCH_SITE":"Xichang Space Center, China","OWNER":"VENEZUELA","ORBIT_TYPE":"Geosynchronous","OPERATIONAL_STATUS":"Operational","satInfo":{"lng":-96.04183083437164,"lat":-0.39079908116532086,"elevation":-8.953259160607454,"azimuth":51.041830834371616,"range":42694.54419226527,"height":35797.18104613751,"velocity":3.0743705430352786},"x":-356,"y":38,"dx":-3,"dy":31},{"OBJECT_ID":"2008-057A","OBJECT_NAME":"ASTRA 1M","NORAD_CAT_ID":"33436","OBJECT_TYPE":"PAYLOAD","PERIOD":"1436.094","INCLINATION":"0.0456","APOGEE":"35808.006","PERIGEE":"35765.091","ECCENTRICITY":"0.0005089","MEAN_MOTION":"1.00271957","TLE_LINE1":"1 33436U 08057A   16238.67879186  .00000093  00000-0  00000+0 0  9992","TLE_LINE2":"2 33436   0.0456 288.9598 0005089 221.9264  87.0019  1.00271957 28550","LAUNCH_DATE":"2008-11-05","LAUNCH_SITE":"TYURATAM MISSILE AND SPACE COMPLEX","OWNER":"SOCIÉTÉ EUROPÉENNE DES SATELLITES","ORBIT_TYPE":"Geosynchronous","OPERATIONAL_STATUS":"Operational","satInfo":{"lng":33.627524154500634,"lat":2.0592152321298474,"elevation":-6.557267485421189,"azimuth":281.37247584549937,"range":42414.628212487885,"height":35786.22487010137,"velocity":3.0740746103181706},"x":198,"y":-298,"dx":26,"dy":-17},{"OBJECT_ID":"2008-063A","OBJECT_NAME":"CIEL-2","NORAD_CAT_ID":"33453","OBJECT_TYPE":"PAYLOAD","PERIOD":"1436.083","INCLINATION":"0.0074","APOGEE":"35798.637","PERIGEE":"35774.039","ECCENTRICITY":"0.0002917","MEAN_MOTION":"1.00272707","TLE_LINE1":"1 33453U 08063A   16238.48856561 +.00000032 +00000-0 +00000-0 0  9993","TLE_LINE2":"2 33453 000.0074 299.9484 0002917 229.3119 211.9341 01.00272707028245","LAUNCH_DATE":"2008-12-10","LAUNCH_SITE":"TYURATAM MISSILE AND SPACE COMPLEX","OWNER":"CANADA","ORBIT_TYPE":"Geosynchronous","OPERATIONAL_STATUS":"Operational","satInfo":{"lng":-110.66598711218465,"lat":-1.464944926289068,"elevation":-10.006297264102665,"azimuth":65.66598711218464,"range":42780.88654158029,"height":35765.755635260226,"velocity":3.0757490463430006},"x":-335,"y":126,"dx":-11,"dy":29},{"OBJECT_ID":"2008-065A","OBJECT_NAME":"EUTE HOT BIRD 13C (HB 9)","NORAD_CAT_ID":"33459","OBJECT_TYPE":"PAYLOAD","PERIOD":"1436.095","INCLINATION":"0.0595","APOGEE":"35807.527","PERIGEE":"35765.598","ECCENTRICITY":"0.0004972","MEAN_MOTION":"1.00271906","TLE_LINE1":"1 33459U 08065A   16239.03432936  .00000059  00000-0  00000+0 0  9997","TLE_LINE2":"2 33459   0.0595  63.8354 0004972  73.0220 223.1748  1.00271906 28339","LAUNCH_DATE":"2008-12-20","LAUNCH_SITE":"FRENCH GUIANA","OWNER":"EUROPEAN TELECOMMUNICATIONS SATELLITE ORGANIZATION (EUTELSAT)","ORBIT_TYPE":"Geosynchronous","OPERATIONAL_STATUS":"Operational","satInfo":{"lng":14.701698413042198,"lat":-1.4228580365820767,"elevation":-9.95877753115518,"azimuth":300.2983015869578,"range":42808.917069831405,"height":35798.745349327066,"velocity":3.0735951337613536},"x":91,"y":-346,"dx":30,"dy":-8},{"OBJECT_ID":"2008-065B","OBJECT_NAME":"EUTE 28B (EUTE W2M)","NORAD_CAT_ID":"33460","OBJECT_TYPE":"PAYLOAD","PERIOD":"1436.080","INCLINATION":"0.0796","APOGEE":"35798.051","PERIGEE":"35774.481","ECCENTRICITY":"0.0002795","MEAN_MOTION":"1.00272965","TLE_LINE1":"1 33460U 08065B   16239.18088193  .00000096  00000-0  00000+0 0  9998","TLE_LINE2":"2 33460   0.0796 306.6101 0002795 240.4354 260.9897  1.00272965 28195","LAUNCH_DATE":"2008-12-20","LAUNCH_SITE":"FRENCH GUIANA","OWNER":"EUROPEAN TELECOMMUNICATIONS SATELLITE ORGANIZATION (EUTELSAT)","ORBIT_TYPE":"Geosynchronous","OPERATIONAL_STATUS":"Operational","satInfo":{"lng":99.861368961559,"lat":0.6722443498558024,"elevation":-7.916796909817582,"azimuth":215.13863103844102,"range":42566.76506133497,"height":35785.828822368414,"velocity":3.0745123353253105},"x":353,"y":61,"dx":-5,"dy":-30},{"OBJECT_ID":"2008-066A","OBJECT_NAME":"FENGYUN 2E","NORAD_CAT_ID":"33463","OBJECT_TYPE":"PAYLOAD","PERIOD":"1436.130","INCLINATION":"1.6298","APOGEE":"35804.626","PERIGEE":"35769.874","ECCENTRICITY":"0.0004121","MEAN_MOTION":"1.00269454","TLE_LINE1":"1 33463U 08066A   16238.86297331 -.00000225 +00000-0 +00000-0 0  9998","TLE_LINE2":"2 33463 001.6298 063.6428 0004121 198.3026 109.6266 01.00269454028161","LAUNCH_DATE":"2008-12-23","LAUNCH_SITE":"Xichang Space Center, China","OWNER":"PEOPLES REPUBLIC OF CHINA","ORBIT_TYPE":"Geosynchronous","OPERATIONAL_STATUS":"Operational","satInfo":{"lng":64.36192187890242,"lat":0.4424610840002057,"elevation":-8.139419666328015,"azimuth":250.63807812109758,"range":42602.530037964,"height":35796.49199835748,"velocity":3.073895454402097},"x":323,"y":-155,"dx":13,"dy":-28},{"OBJECT_ID":"2009-007A","OBJECT_NAME":"EXPRESS AM-44","NORAD_CAT_ID":"33595","OBJECT_TYPE":"PAYLOAD","PERIOD":"1436.100","INCLINATION":"0.0367","APOGEE":"35789.058","PERIGEE":"35784.285","ECCENTRICITY":"5.66e-05","MEAN_MOTION":"1.00271516","TLE_LINE1":"1 33595U 09007A   16239.25654459 -.00000117  00000-0  00000+0 0  9991","TLE_LINE2":"2 33595   0.0367 275.4088 0000566 276.4469 224.4256  1.00271516 27649","LAUNCH_DATE":"2009-02-11","LAUNCH_SITE":"TYURATAM MISSILE AND SPACE COMPLEX","OWNER":"COMMONWEALTH OF INDEPENDENT STATES","ORBIT_TYPE":"Geosynchronous","OPERATIONAL_STATUS":"Operational","satInfo":{"lng":-110.26017818630376,"lat":-0.7754466226828363,"elevation":-9.324690933832393,"azimuth":65.26017818630366,"range":42755.2019733597,"height":35815.95744513556,"velocity":3.0737030725843035},"x":-336,"y":124,"dx":-11,"dy":29},{"OBJECT_ID":"2009-008A","OBJECT_NAME":"NSS 9","NORAD_CAT_ID":"33749","OBJECT_TYPE":"PAYLOAD","PERIOD":"1436.088","INCLINATION":"0.0513","APOGEE":"35795.516","PERIGEE":"35777.343","ECCENTRICITY":"0.0002155","MEAN_MOTION":"1.00272381","TLE_LINE1":"1 33749U 09008A   16238.71656884  .00000045  00000-0  00000+0 0  9996","TLE_LINE2":"2 33749   0.0513 299.2505 0002155 220.6118 255.5548  1.00272381 27649","LAUNCH_DATE":"2009-02-12","LAUNCH_SITE":"FRENCH GUIANA","OWNER":"SOCIÉTÉ EUROPÉENNE DES SATELLITES","ORBIT_TYPE":"Geosynchronous","OPERATIONAL_STATUS":"Operational","satInfo":{"lng":-65.63185447562859,"lat":0.03077853942331087,"elevation":-8.538457450924577,"azimuth":20.63185447562856,"range":42664.13096494784,"height":35813.129145323364,"velocity":3.0736610576674672},"x":-326,"y":-148,"dx":13,"dy":28},{"OBJECT_ID":"2009-008B","OBJECT_NAME":"EUTE HOT BIRD 13D (HB10)","NORAD_CAT_ID":"33750","OBJECT_TYPE":"PAYLOAD","PERIOD":"1436.130","INCLINATION":"0.0776","APOGEE":"35811.544","PERIGEE":"35762.961","ECCENTRICITY":"0.0005761","MEAN_MOTION":"1.00269444","TLE_LINE1":"1 33750U 09008B   16239.02063299  .00000128  00000-0  00000+0 0  9997","TLE_LINE2":"2 33750   0.0776 293.3414 0005761 247.2522 194.6159  1.00269444 27687","LAUNCH_DATE":"2009-02-12","LAUNCH_SITE":"FRENCH GUIANA","OWNER":"EUROPEAN TELECOMMUNICATIONS SATELLITE ORGANIZATION (EUTELSAT)","ORBIT_TYPE":"Geosynchronous","OPERATIONAL_STATUS":"Operational","satInfo":{"lng":85.59186833574553,"lat":0.7905901032666393,"elevation":-7.802680890632371,"azimuth":229.40813166425446,"range":42545.43854277922,"height":35777.4031329888,"velocity":3.0744942499519525},"x":357,"y":-27,"dx":2,"dy":-31}]